{"type": "FeatureCollection", "features": [ {"type": "Feature", "properties": {"norad_id": 66524, "name": "STARLINK-35687", "group": "last-30-days", "lat": 36.116256853507785, "lon": -157.55209690298128, "alt_km": 402.8469372857744, "timestamp": "2025-12-09T07:41:31.972434+00:00", "meta": {"OBJECT_NAME": "STARLINK-35687", "OBJECT_ID": "2025-265J", "EPOCH": "2025-12-08T22:00:03.000096", "MEAN_MOTION": 15.54984305, "ECCENTRICITY": 0.0001674, "INCLINATION": 43.0004, "RA_OF_ASC_NODE": 76.359, "ARG_OF_PERICENTER": 281.369, "MEAN_ANOMALY": 96.8635, "EPHEMERIS_TYPE": 0, "CLASSIFICATION_TYPE": "U", "NORAD_CAT_ID": 66524, "ELEMENT_SET_NO": 999, "REV_AT_EPOCH": 438, "BSTAR": -0.033239977, "MEAN_MOTION_DOT": -0.02041471, "MEAN_MOTION_DDOT": 0}, "tle": {"line1": "1 66524U 25265J   25342.91670139 -.02041471  00000+0 -33240-1 0  9998", "line2": "2 66524  43.0004  76.3590 0001674 281.3690  96.8635 15.54984305  4389"}}, "geometry": {"type": "Point", "coordinates": [-157.55209690298128, 36.116256853507785]}}, {"type": "Feature", "properties": {"norad_id": 66525, "name": "STARLINK-35975", "group": "last-30-days", "lat": 35.28368118211378, "lon": -155.42801732169357, "alt_km": 402.9388441943429, "timestamp": "2025-12-09T07:41:31.972444+00:00", "meta": {"OBJECT_NAME": "STARLINK-35975", "OBJECT_ID": "2025-265K", "EPOCH": "2025-12-08T22:00:03.000096", "MEAN_MOTION": 15.54985885, "ECCENTRICITY": 0.00016876, "INCLINATION": 43.0002, "RA_OF_ASC_NODE": 76.3547, "ARG_OF_PERICENTER": 276.4971, "MEAN_ANOMALY": 103.655, "EPHEMERIS_TYPE": 0, "CLASSIFICATION_TYPE": "U", "NORAD_CAT_ID": 66525, "ELEMENT_SET_NO": 999, "REV_AT_EPOCH": 438, "BSTAR": -0.033314868, "MEAN_MOTION_DOT": -0.02045694, "MEAN_MOTION_DDOT": 0}, "tle": {"line1": "1 66525U 25265K   25342.91670139 -.02045694  00000+0 -33315-1 0  9993", "line2": "2 66525  43.0002  76.3547 0001687 276.4971 103.6550 15.54985885  4388"}}, "geometry": {"type": "Point", "coordinates": [-155.42801732169357, 35.28368118211378]}}, {"type": "Feature", "properties": {"norad_id": 66526, "name": "STARLINK-35932", "group": "last-30-days", "lat": 34.414358679801325, "lon": -153.3479039156849, "alt_km": 403.1220403341722, "timestamp": "2025-12-09T07:41:31.972457+00:00", "meta": {"OBJECT_NAME": "STARLINK-35932", "OBJECT_ID": "2025-265L", "EPOCH": "2025-12-08T22:00:03.000096", "MEAN_MOTION": 15.54982379, "ECCENTRICITY": 0.00017207, "INCLINATION": 43.0001, "RA_OF_ASC_NODE": 76.3499, "ARG_OF_PERICENTER": 281.4831, "MEAN_ANOMALY": 100.5849, "EPHEMERIS_TYPE": 0, "CLASSIFICATION_TYPE": "U", "NORAD_CAT_ID": 66526, "ELEMENT_SET_NO": 999, "REV_AT_EPOCH": 427, "BSTAR": -0.033197083, "MEAN_MOTION_DOT": -0.02039019, "MEAN_MOTION_DDOT": 0}, "tle": {"line1": "1 66526U 25265L   25342.91670139 -.02039019  00000+0 -33197-1 0  9996", "line2": "2 66526  43.0001  76.3499 0001720 281.4831 100.5849 15.54982379  4273"}}, "geometry": {"type": "Point", "coordinates": [-153.3479039156849, 34.414358679801325]}}, {"type": "Feature", "properties": {"norad_id": 66527, "name": "STARLINK-35935", "group": "last-30-days", "lat": 33.51099922067005, "lon": -151.31242608332397, "alt_km": 403.09091158985575, "timestamp": "2025-12-09T07:41:31.972468+00:00", "meta": {"OBJECT_NAME": "STARLINK-35935", "OBJECT_ID": "2025-265M", "EPOCH": "2025-12-08T22:00:03.000096", "MEAN_MOTION": 15.54985909, "ECCENTRICITY": 0.00015882, "INCLINATION": 43.0001, "RA_OF_ASC_NODE": 76.3453, "ARG_OF_PERICENTER": 274.091, "MEAN_ANOMALY": 109.8945, "EPHEMERIS_TYPE": 0, "CLASSIFICATION_TYPE": "U", "NORAD_CAT_ID": 66527, "ELEMENT_SET_NO": 999, "REV_AT_EPOCH": 438, "BSTAR": -0.033291844, "MEAN_MOTION_DOT": -0.02044369, "MEAN_MOTION_DDOT": 0}, "tle": {"line1": "1 66527U 25265M   25342.91670139 -.02044369  00000+0 -33292-1 0  9997", "line2": "2 66527  43.0001  76.3453 0001588 274.0910 109.8945 15.54985909  4385"}}, "geometry": {"type": "Point", "coordinates": [-151.31242608332397, 33.51099922067005]}}, {"type": "Feature", "properties": {"norad_id": 66528, "name": "STARLINK-35928", "group": "last-30-days", "lat": 32.5746675621297, "lon": -149.31918707479184, "alt_km": 403.35935750003136, "timestamp": "2025-12-09T07:41:31.972480+00:00", "meta": {"OBJECT_NAME": "STARLINK-35928", "OBJECT_ID": "2025-265N", "EPOCH": "2025-12-08T22:00:03.000096", "MEAN_MOTION": 15.54985797, "ECCENTRICITY": 0.00016838, "INCLINATION": 43.0004, "RA_OF_ASC_NODE": 76.3403, "ARG_OF_PERICENTER": 280.757, "MEAN_ANOMALY": 105.144, "EPHEMERIS_TYPE": 0, "CLASSIFICATION_TYPE": "U", "NORAD_CAT_ID": 66528, "ELEMENT_SET_NO": 999, "REV_AT_EPOCH": 438, "BSTAR": -0.033293763, "MEAN_MOTION_DOT": -0.02044528, "MEAN_MOTION_DDOT": 0}, "tle": {"line1": "1 66528U 25265N   25342.91670139 -.02044528  00000+0 -33294-1 0  9997", "line2": "2 66528  43.0004  76.3403 0001683 280.7570 105.1440 15.54985797  4380"}}, "geometry": {"type": "Point", "coordinates": [-149.31918707479184, 32.5746675621297]}}, {"type": "Feature", "properties": {"norad_id": 66529, "name": "STARLINK-35933", "group": "last-30-days", "lat": 31.607378279406316, "lon": -147.36850602025103, "alt_km": 403.4761608133904, "timestamp": "2025-12-09T07:41:31.972490+00:00", "meta": {"OBJECT_NAME": "STARLINK-35933", "OBJECT_ID": "2025-265P", "EPOCH": "2025-12-08T22:00:03.000096", "MEAN_MOTION": 15.54986366, "ECCENTRICITY": 0.00017123, "INCLINATION": 43.0005, "RA_OF_ASC_NODE": 76.3351, "ARG_OF_PERICENTER": 278.007, "MEAN_ANOMALY": 109.8109, "EPHEMERIS_TYPE": 0, "CLASSIFICATION_TYPE": "U", "NORAD_CAT_ID": 66529, "ELEMENT_SET_NO": 999, "REV_AT_EPOCH": 438, "BSTAR": -0.033274823, "MEAN_MOTION_DOT": -0.02043547, "MEAN_MOTION_DDOT": 0}, "tle": {"line1": "1 66529U 25265P   25342.91670139 -.02043547  00000+0 -33275-1 0  9997", "line2": "2 66529  43.0005  76.3351 0001712 278.0070 109.8109 15.54986366  4388"}}, "geometry": {"type": "Point", "coordinates": [-147.36850602025103, 31.607378279406316]}}, {"type": "Feature", "properties": {"norad_id": 66530, "name": "STARLINK-35961", "group": "last-30-days", "lat": 30.610871032506868, "lon": -145.45767576878404, "alt_km": 403.66805946592194, "timestamp": "2025-12-09T07:41:31.972500+00:00", "meta": {"OBJECT_NAME": "STARLINK-35961", "OBJECT_ID": "2025-265Q", "EPOCH": "2025-12-08T22:00:03.000096", "MEAN_MOTION": 15.54983241, "ECCENTRICITY": 0.00017246, "INCLINATION": 43.0006, "RA_OF_ASC_NODE": 76.3308, "ARG_OF_PERICENTER": 281.647, "MEAN_ANOMALY": 108.0888, "EPHEMERIS_TYPE": 0, "CLASSIFICATION_TYPE": "U", "NORAD_CAT_ID": 66530, "ELEMENT_SET_NO": 999, "REV_AT_EPOCH": 438, "BSTAR": -0.033213543, "MEAN_MOTION_DOT": -0.02039982, "MEAN_MOTION_DDOT": 0}, "tle": {"line1": "1 66530U 25265Q   25342.91670139 -.02039982  00000+0 -33214-1 0  9990", "line2": "2 66530  43.0006  76.3308 0001724 281.6470 108.0888 15.54983241  4384"}}, "geometry": {"type": "Point", "coordinates": [-145.45767576878404, 30.610871032506868]}}, {"type": "Feature", "properties": {"norad_id": 66531, "name": "STARLINK-35960", "group": "last-30-days", "lat": 29.586295297535163, "lon": -143.58655999037853, "alt_km": 403.7524131513228, "timestamp": "2025-12-09T07:41:31.972510+00:00", "meta": {"OBJECT_NAME": "STARLINK-35960", "OBJECT_ID": "2025-265R", "EPOCH": "2025-12-08T22:00:03.000096", "MEAN_MOTION": 15.54987206, "ECCENTRICITY": 0.0001649, "INCLINATION": 43.0005, "RA_OF_ASC_NODE": 76.3256, "ARG_OF_PERICENTER": 280.1282, "MEAN_ANOMALY": 111.5243, "EPHEMERIS_TYPE": 0, "CLASSIFICATION_TYPE": "U", "NORAD_CAT_ID": 66531, "ELEMENT_SET_NO": 999, "REV_AT_EPOCH": 438, "BSTAR": -0.033317196, "MEAN_MOTION_DOT": -0.02045885, "MEAN_MOTION_DDOT": 0}, "tle": {"line1": "1 66531U 25265R   25342.91670139 -.02045885  00000+0 -33317-1 0  9994", "line2": "2 66531  43.0005  76.3256 0001649 280.1282 111.5243 15.54987206  4386"}}, "geometry": {"type": "Point", "coordinates": [-143.58655999037853, 29.586295297535163]}}, {"type": "Feature", "properties": {"norad_id": 66532, "name": "STARLINK-35914", "group": "last-30-days", "lat": 28.537070345438813, "lon": -141.75515751411166, "alt_km": 403.9474499416483, "timestamp": "2025-12-09T07:41:31.972520+00:00", "meta": {"OBJECT_NAME": "STARLINK-35914", "OBJECT_ID": "2025-265S", "EPOCH": "2025-12-08T22:00:03.000096", "MEAN_MOTION": 15.5498449, "ECCENTRICITY": 0.00016944, "INCLINATION": 43.0004, "RA_OF_ASC_NODE": 76.3209, "ARG_OF_PERICENTER": 281.1836, "MEAN_ANOMALY": 112.3885, "EPHEMERIS_TYPE": 0, "CLASSIFICATION_TYPE": "U", "NORAD_CAT_ID": 66532, "ELEMENT_SET_NO": 999, "REV_AT_EPOCH": 438, "BSTAR": -0.033314177, "MEAN_MOTION_DOT": -0.02045565, "MEAN_MOTION_DDOT": 0}, "tle": {"line1": "1 66532U 25265S   25342.91670139 -.02045565  00000+0 -33314-1 0  9997", "line2": "2 66532  43.0004  76.3209 0001694 281.1836 112.3885 15.54984490  4383"}}, "geometry": {"type": "Point", "coordinates": [-141.75515751411166, 28.537070345438813]}}, {"type": "Feature", "properties": {"norad_id": 66533, "name": "STARLINK-35707", "group": "last-30-days", "lat": 27.462578020051712, "lon": -139.95869286663634, "alt_km": 404.02315723255015, "timestamp": "2025-12-09T07:41:31.972530+00:00", "meta": {"OBJECT_NAME": "STARLINK-35707", "OBJECT_ID": "2025-265T", "EPOCH": "2025-12-08T22:00:03.000096", "MEAN_MOTION": 15.54986714, "ECCENTRICITY": 0.00016123, "INCLINATION": 43.0004, "RA_OF_ASC_NODE": 76.316, "ARG_OF_PERICENTER": 279.6074, "MEAN_ANOMALY": 115.8802, "EPHEMERIS_TYPE": 0, "CLASSIFICATION_TYPE": "U", "NORAD_CAT_ID": 66533, "ELEMENT_SET_NO": 999, "REV_AT_EPOCH": 438, "BSTAR": -0.033327832, "MEAN_MOTION_DOT": -0.02046411, "MEAN_MOTION_DDOT": 0}, "tle": {"line1": "1 66533U 25265T   25342.91670139 -.02046411  00000+0 -33328-1 0  9994", "line2": "2 66533  43.0004  76.3160 0001612 279.6074 115.8802 15.54986714  4384"}}, "geometry": {"type": "Point", "coordinates": [-139.95869286663634, 27.462578020051712]}}]}